{"fetched_at":"2026-06-08T18:26:03Z","count":4361,"tles":[{"name":"COSMOS 2428","line1":"1 31792U 07029A   26159.01101266 -.00000174  00000+0 -67939-4 0  9991","line2":"2 31792  70.9375  13.7451 0007234 152.6375 207.5129 14.12930113976857","category":"Other"},{"name":"COSMO-SKYMED 1","line1":"1 31598U 07023A   26159.17870399  .00002054  00000+0  18344-3 0  9998","line2":"2 31598  97.8858 350.9599 0001167  80.4329 279.7024 14.97059399 28449","category":"Other"},{"name":"ALOS-2","line1":"1 39766U 14029A   26159.14399689  .00001008  00000+0  14191-3 0  9996","line2":"2 39766  97.9210 256.4371 0001683  92.3861 267.7543 14.79469616650240","category":"Other"},{"name":"SAOCOM 1A","line1":"1 43641U 18076A   26159.15712137  .00000830  00000+0  11077-3 0  9999","line2":"2 43641  97.8887 346.0372 0001540  79.5659 280.5728 14.82169766414767","category":"Other"},{"name":"ACS3","line1":"1 59588U 24077B   26159.01724059  .00035871  00000+0  26806-1 0  9992","line2":"2 59588  97.1689  79.8534 0050318  67.9991 292.6511 13.93877753106760","category":"Other"},{"name":"XRISM","line1":"1 57800U 23137A   26159.01713870  .00005436  00000+0  29986-3 0  9990","line2":"2 57800  31.0025  58.9975 0007920 233.1431 126.8482 15.12386516151478","category":"Other"},{"name":"YAOGAN-29","line1":"1 41038U 15069A   26159.20453615  .00000027  00000+0  10023-4 0  9994","line2":"2 41038  98.0031 187.8233 0002952  67.5444 292.6082 14.83077028569299","category":"Other"},{"name":"H-2A R/B","line1":"1 43682U 18084L   26159.12575006  .00022949  00000+0  48623-3 0  9994","line2":"2 43682  98.8591  36.0379 0024252  70.7148 289.6716 15.44807347419720","category":"Other"},{"name":"SL-4 R/B","line1":"1 39679U 14021B   26158.98987995  .00012313  00000+0  25508-3 0  9990","line2":"2 39679  51.6060 255.8246 0091633  72.5138 288.5837 15.41760849670193","category":"Other"},{"name":"CZ-2C R/B","line1":"1 52794U 22058K   26158.45145853  .00036142  00000+0  41128-3 0  9995","line2":"2 52794  50.1841 214.1517 0033049 227.1063 132.7134 15.61206771224127","category":"Other"},{"name":"ASTRO-H (HITOMI)","line1":"1 41337U 16012A   26159.17939003  .00002388  00000+0  13578-3 0  9990","line2":"2 41337  30.9977 132.3609 0009613 163.8172 196.2775 15.10471903565921","category":"Other"},{"name":"COSMOS 2550","line1":"1 48865U 21056A   26159.15582875  .00006271  00000+0  19677-3 0  9997","line2":"2 48865  67.1417 127.2251 0008701 266.1413  93.8746 15.33747786277338","category":"Other"},{"name":"SAOCOM 1B","line1":"1 46265U 20059A   26159.18839544 -.00000176  00000+0 -15609-4 0  9994","line2":"2 46265  97.8891 345.1621 0001478  77.0014 283.1364 14.82161537312155","category":"Other"},{"name":"SL-16 R/B","line1":"1 31793U 07029B   26158.92722367  .00000311  00000+0  18580-3 0  9990","line2":"2 31793  70.9759 342.6951 0002239 258.5790 207.0203 14.14849857978137","category":"Other"},{"name":"CSS (TIANHE)","line1":"1 48274U 21035A   26159.08188282  .00025465  00000+0  30374-3 0  9997","line2":"2 48274  41.4696  17.3987 0008703   5.5904 354.5031 15.60427341291740","category":"Other"},{"name":"CZ-2C R/B","line1":"1 37731U 11030B   26159.11609505  .00001432  00000+0  18528-3 0  9992","line2":"2 37731  97.8652 114.6665 0053655  56.9307 314.6355 14.81449994803486","category":"Other"},{"name":"SHIJIAN-16 (SJ-16)","line1":"1 39358U 13057A   26159.19067243  .00000723  00000+0  73026-4 0  9992","line2":"2 39358  74.9733  13.7231 0016954 251.6324 108.3021 14.92591453685005","category":"Other"},{"name":"KORONAS-FOTON","line1":"1 33504U 09003A   26159.14428022  .00010331  00000+0  21396-3 0  9994","line2":"2 33504  82.4293 181.6912 0010686 177.6280 182.5021 15.45535835959708","category":"Other"},{"name":"GSLV R/B","line1":"1 54149U 22138AN  26158.96136584  .00002904  00000+0  24748-3 0  9995","line2":"2 54149  87.3800 136.0828 0021415 175.7728 184.3689 14.97218104197439","category":"Other"},{"name":"H-2A R/B","line1":"1 38341U 12025E   26159.19246715  .00003045  00000+0  27472-3 0  9993","line2":"2 38341  98.4814 133.5967 0044313  18.2206 342.0588 14.95666091761745","category":"Other"},{"name":"CZ-8A R/B","line1":"1 66004U 25231K   26159.03831544 -.00000021  00000+0  51075-4 0  9995","line2":"2 66004  50.0043  78.2391 0116477 191.8063 168.0116 14.30152443 33639","category":"Other"}]}